STARLINK-31498          
1 59189U 24045M   26004.25529837 -.00003439  00000+0 -11552-3 0  9997
2 59189  42.9994  96.7186 0001116 305.7695  54.3053 15.27579765103303
STARLINK-31563          
1 59190U 24045N   26003.62953167 -.00000457  00000+0 -70872-5 0  9995
2 59190  42.9973  99.7683 0000179 153.4277 206.6584 15.27590775103214
STARLINK-31551          
1 59191U 24045P   26004.27234328 -.00002748  00000+0 -90395-4 0  9995
2 59191  43.0004  92.5593 0000495 284.5022  75.5775 15.27574579103352
STARLINK-31536          
1 59192U 24045Q   26004.33336806  .00008659  00000+0  32408-3 0  9992
2 59192  43.0033  95.9857 0001302 265.8861 284.3597 15.27553432  5871
STARLINK-31548          
1 59193U 24045R   26004.26171833 -.00001645  00000+0 -50270-4 0  9990
2 59193  43.0016  96.7669 0002232 281.2683  78.7918 15.27576763103301
STARLINK-31542          
1 59194U 24045S   26004.26928344  .00000886  00000+0  41738-4 0  9991
2 59194  43.0013  95.9626 0001423 260.7166  99.3525 15.27572003103319
STARLINK-31554          
1 59195U 24045T   26004.24758689 -.00000306  00000+0 -16257-5 0  9991
2 59195  43.0005  96.6614 0000156  95.3480 264.7389 15.27567643103308
STARLINK-31558          
1 59196U 24045U   26004.27313636 -.00001714  00000+0 -52798-4 0  9997
2 59196  42.9966  95.9908 0000768 280.8403  79.2362 15.27576401103320
STARLINK-31275          
1 59197U 24045V   26004.31682793 -.00000745  00000+0 -17539-4 0  9993
2 59197  43.0053  96.3244 0001563 271.5437  88.5236 15.27566939103313
STARLINK-31590          
1 59198U 24045W   26004.25910586  .00003516  00000+0  13709-3 0  9992
2 59198  43.0033  96.7467 0002582 275.5123  84.5434 15.27612918103305
STARLINK-31567          
1 59199U 24045X   26004.22188483 -.00000376  00000+0 -41514-5 0  9993
2 59199  42.9931  96.4663 0000637 131.4024 228.6882 15.27568949103307
STARLINK-31503          
1 59200U 24045Y   26004.29112318 -.00001692  00000+0 -52014-4 0  9995
2 59200  42.9976  96.1260 0000308 232.5933 127.4891 15.27577410103316
STARLINK-31603          
1 59201U 24046A   26004.27647293 -.00000157  00000+0  68172-5 0  9997
2 59201  53.1605  94.8192 0001144 100.5379 259.5750 15.30189301103184
STARLINK-31602          
1 59202U 24046B   26004.23954205  .00000324  00000+0  23063-4 0  9992
2 59202  53.1607  94.5820 0001222  87.1112 273.0028 15.30177974103186
STARLINK-31577          
1 59203U 24046C   26004.33336806  .00008291  00000+0  29177-3 0  9997
2 59203  53.1580  93.8989 0001303  76.2423 209.0033 15.30195388  5779
STARLINK-31522          
1 59204U 24046D   26004.27436140 -.00000607  00000+0 -83728-5 0  9992
2 59204  53.1601  94.8057 0000946  76.3026 283.8081 15.30191930103189
