[{"OBJECT_NAME":"STARLINK-31498","OBJECT_ID":"2024-045M","EPOCH":"2026-01-04T06:07:37.779168","MEAN_MOTION":15.27579765,"ECCENTRICITY":0.00011166,"INCLINATION":42.9994,"RA_OF_ASC_NODE":96.7186,"ARG_OF_PERICENTER":305.7695,"MEAN_ANOMALY":54.3053,"EPHEMERIS_TYPE":0,"CLASSIFICATION_TYPE":"U","NORAD_CAT_ID":59189,"ELEMENT_SET_NO":999,"REV_AT_EPOCH":10330,"BSTAR":-0.00011552199,"MEAN_MOTION_DOT":-3.439e-5,"MEAN_MOTION_DDOT":0},{"OBJECT_NAME":"STARLINK-31563","OBJECT_ID":"2024-045N","EPOCH":"2026-01-03T15:06:31.536288","MEAN_MOTION":15.27590775,"ECCENTRICITY":1.795e-5,"INCLINATION":42.9973,"RA_OF_ASC_NODE":99.7683,"ARG_OF_PERICENTER":153.4277,"MEAN_ANOMALY":206.6584,"EPHEMERIS_TYPE":0,"CLASSIFICATION_TYPE":"U","NORAD_CAT_ID":59190,"ELEMENT_SET_NO":999,"REV_AT_EPOCH":10321,"BSTAR":-7.087158e-6,"MEAN_MOTION_DOT":-4.57e-6,"MEAN_MOTION_DDOT":0},{"OBJECT_NAME":"STARLINK-31551","OBJECT_ID":"2024-045P","EPOCH":"2026-01-04T06:32:10.459392","MEAN_MOTION":15.27574579,"ECCENTRICITY":4.959e-5,"INCLINATION":43.0004,"RA_OF_ASC_NODE":92.5593,"ARG_OF_PERICENTER":284.5022,"MEAN_ANOMALY":75.5775,"EPHEMERIS_TYPE":0,"CLASSIFICATION_TYPE":"U","NORAD_CAT_ID":59191,"ELEMENT_SET_NO":999,"REV_AT_EPOCH":10335,"BSTAR":-9.0394955e-5,"MEAN_MOTION_DOT":-2.748e-5,"MEAN_MOTION_DDOT":0},{"OBJECT_NAME":"STARLINK-31536","OBJECT_ID":"2024-045Q","EPOCH":"2026-01-04T08:00:03.000384","MEAN_MOTION":15.27553432,"ECCENTRICITY":0.0001302,"INCLINATION":43.0033,"RA_OF_ASC_NODE":95.9857,"ARG_OF_PERICENTER":265.8861,"MEAN_ANOMALY":284.3597,"EPHEMERIS_TYPE":0,"CLASSIFICATION_TYPE":"U","NORAD_CAT_ID":59192,"ELEMENT_SET_NO":999,"REV_AT_EPOCH":587,"BSTAR":0.00032407791,"MEAN_MOTION_DOT":8.659e-5,"MEAN_MOTION_DDOT":0},{"OBJECT_NAME":"STARLINK-31548","OBJECT_ID":"2024-045R","EPOCH":"2026-01-04T06:16:52.463712","MEAN_MOTION":15.27576763,"ECCENTRICITY":0.00022325,"INCLINATION":43.0016,"RA_OF_ASC_NODE":96.7669,"ARG_OF_PERICENTER":281.2683,"MEAN_ANOMALY":78.7918,"EPHEMERIS_TYPE":0,"CLASSIFICATION_TYPE":"U","NORAD_CAT_ID":59193,"ELEMENT_SET_NO":999,"REV_AT_EPOCH":10330,"BSTAR":-5.0269617e-5,"MEAN_MOTION_DOT":-1.645e-5,"MEAN_MOTION_DDOT":0},{"OBJECT_NAME":"STARLINK-31542","OBJECT_ID":"2024-045S","EPOCH":"2026-01-04T06:27:46.089216","MEAN_MOTION":15.27572003,"ECCENTRICITY":0.00014233,"INCLINATION":43.0013,"RA_OF_ASC_NODE":95.9626,"ARG_OF_PERICENTER":260.7166,"MEAN_ANOMALY":99.3525,"EPHEMERIS_TYPE":0,"CLASSIFICATION_TYPE":"U","NORAD_CAT_ID":59194,"ELEMENT_SET_NO":999,"REV_AT_EPOCH":10331,"BSTAR":4.1737568e-5,"MEAN_MOTION_DOT":8.86e-6,"MEAN_MOTION_DDOT":0},{"OBJECT_NAME":"STARLINK-31554","OBJECT_ID":"2024-045T","EPOCH":"2026-01-04T05:56:31.507296","MEAN_MOTION":15.27567643,"ECCENTRICITY":1.56e-5,"INCLINATION":43.0005,"RA_OF_ASC_NODE":96.6614,"ARG_OF_PERICENTER":95.348,"MEAN_ANOMALY":264.7389,"EPHEMERIS_TYPE":0,"CLASSIFICATION_TYPE":"U","NORAD_CAT_ID":59195,"ELEMENT_SET_NO":999,"REV_AT_EPOCH":10330,"BSTAR":-1.625701e-6,"MEAN_MOTION_DOT":-3.06e-6,"MEAN_MOTION_DDOT":0},{"OBJECT_NAME":"STARLINK-31558","OBJECT_ID":"2024-045U","EPOCH":"2026-01-04T06:33:18.981504","MEAN_MOTION":15.27576401,"ECCENTRICITY":7.688e-5,"INCLINATION":42.9966,"RA_OF_ASC_NODE":95.9908,"ARG_OF_PERICENTER":280.8403,"MEAN_ANOMALY":79.2362,"EPHEMERIS_TYPE":0,"CLASSIFICATION_TYPE":"U","NORAD_CAT_ID":59196,"ELEMENT_SET_NO":999,"REV_AT_EPOCH":10332,"BSTAR":-5.2797898e-5,"MEAN_MOTION_DOT":-1.714e-5,"MEAN_MOTION_DDOT":0},{"OBJECT_NAME":"STARLINK-31275","OBJECT_ID":"2024-045V","EPOCH":"2026-01-04T07:36:13.933152","MEAN_MOTION":15.27566939,"ECCENTRICITY":0.00015632,"INCLINATION":43.0053,"RA_OF_ASC_NODE":96.3244,"ARG_OF_PERICENTER":271.5437,"MEAN_ANOMALY":88.5236,"EPHEMERIS_TYPE":0,"CLASSIFICATION_TYPE":"U","NORAD_CAT_ID":59197,"ELEMENT_SET_NO":999,"REV_AT_EPOCH":10331,"BSTAR":-1.7538696e-5,"MEAN_MOTION_DOT":-7.45e-6,"MEAN_MOTION_DDOT":0},{"OBJECT_NAME":"STARLINK-31590","OBJECT_ID":"2024-045W","EPOCH":"2026-01-04T06:13:06.746304","MEAN_MOTION":15.27612918,"ECCENTRICITY":0.00025827,"INCLINATION":43.0033,"RA_OF_ASC_NODE":96.7467,"ARG_OF_PERICENTER":275.5123,"MEAN_ANOMALY":84.5434,"EPHEMERIS_TYPE":0,"CLASSIFICATION_TYPE":"U","NORAD_CAT_ID":59198,"ELEMENT_SET_NO":999,"REV_AT_EPOCH":10330,"BSTAR":0.0001370947,"MEAN_MOTION_DOT":3.516e-5,"MEAN_MOTION_DDOT":0},{"OBJECT_NAME":"STARLINK-31567","OBJECT_ID":"2024-045X","EPOCH":"2026-01-04T05:19:30.849312","MEAN_MOTION":15.27568949,"ECCENTRICITY":6.378e-5,"INCLINATION":42.9931,"RA_OF_ASC_NODE":96.4663,"ARG_OF_PERICENTER":131.4024,"MEAN_ANOMALY":228.6882,"EPHEMERIS_TYPE":0,"CLASSIFICATION_TYPE":"U","NORAD_CAT_ID":59199,"ELEMENT_SET_NO":999,"REV_AT_EPOCH":10330,"BSTAR":-4.151414e-6,"MEAN_MOTION_DOT":-3.76e-6,"MEAN_MOTION_DDOT":0},{"OBJECT_NAME":"STARLINK-31503","OBJECT_ID":"2024-045Y","EPOCH":"2026-01-04T06:59:13.042752","MEAN_MOTION":15.2757741,"ECCENTRICITY":3.086e-5,"INCLINATION":42.9976,"RA_OF_ASC_NODE":96.126,"ARG_OF_PERICENTER":232.5933,"MEAN_ANOMALY":127.4891,"EPHEMERIS_TYPE":0,"CLASSIFICATION_TYPE":"U","NORAD_CAT_ID":59200,"ELEMENT_SET_NO":999,"REV_AT_EPOCH":10331,"BSTAR":-5.2014353e-5,"MEAN_MOTION_DOT":-1.692e-5,"MEAN_MOTION_DDOT":0},{"OBJECT_NAME":"STARLINK-31603","OBJECT_ID":"2024-046A","EPOCH":"2026-01-04T06:38:07.261152","MEAN_MOTION":15.30189301,"ECCENTRICITY":0.00011443,"INCLINATION":53.1605,"RA_OF_ASC_NODE":94.8192,"ARG_OF_PERICENTER":100.5379,"MEAN_ANOMALY":259.575,"EPHEMERIS_TYPE":0,"CLASSIFICATION_TYPE":"U","NORAD_CAT_ID":59201,"ELEMENT_SET_NO":999,"REV_AT_EPOCH":10318,"BSTAR":6.81716e-6,"MEAN_MOTION_DOT":-1.57e-6,"MEAN_MOTION_DDOT":0},{"OBJECT_NAME":"STARLINK-31602","OBJECT_ID":"2024-046B","EPOCH":"2026-01-04T05:44:56.433120","MEAN_MOTION":15.30177974,"ECCENTRICITY":0.00012226,"INCLINATION":53.1607,"RA_OF_ASC_NODE":94.582,"ARG_OF_PERICENTER":87.1112,"MEAN_ANOMALY":273.0028,"EPHEMERIS_TYPE":0,"CLASSIFICATION_TYPE":"U","NORAD_CAT_ID":59202,"ELEMENT_SET_NO":999,"REV_AT_EPOCH":10318,"BSTAR":2.3062918e-5,"MEAN_MOTION_DOT":3.24e-6,"MEAN_MOTION_DDOT":0},{"OBJECT_NAME":"STARLINK-31577","OBJECT_ID":"2024-046C","EPOCH":"2026-01-04T08:00:03.000384","MEAN_MOTION":15.30195388,"ECCENTRICITY":0.00013034,"INCLINATION":53.158,"RA_OF_ASC_NODE":93.8989,"ARG_OF_PERICENTER":76.2423,"MEAN_ANOMALY":209.0033,"EPHEMERIS_TYPE":0,"CLASSIFICATION_TYPE":"U","NORAD_CAT_ID":59203,"ELEMENT_SET_NO":999,"REV_AT_EPOCH":577,"BSTAR":0.00029177302,"MEAN_MOTION_DOT":8.291e-5,"MEAN_MOTION_DDOT":0},{"OBJECT_NAME":"STARLINK-31522","OBJECT_ID":"2024-046D","EPOCH":"2026-01-04T06:35:04.824960","MEAN_MOTION":15.3019193,"ECCENTRICITY":9.466e-5,"INCLINATION":53.1601,"RA_OF_ASC_NODE":94.8057,"ARG_OF_PERICENTER":76.3026,"MEAN_ANOMALY":283.8081,"EPHEMERIS_TYPE":0,"CLASSIFICATION_TYPE":"U","NORAD_CAT_ID":59204,"ELEMENT_SET_NO":999,"REV_AT_EPOCH":10318,"BSTAR":-8.372757e-6,"MEAN_MOTION_DOT":-6.07e-6,"MEAN_MOTION_DDOT":0}]
